0 THORAD AGENA D DEB
1 14469U 70025NV  13287.04537436 -.00000252  00000-0 -50689-3 0  9038
2 14469 101.6690 130.7941 0272296 330.0392 185.0586 13.05924037541739
0 THORAD AGENA D DEB
1 14469U 70025NV  13289.54386876 -.00000272  00000-0 -55780-3 0  9045
2 14469 101.6682 133.5017 0272286 324.7243 051.2763 13.05923433542066
0 THORAD AGENA D DEB
1 14469U 70025NV  13292.02756543  .00000020  00000-0  18791-3 0  9055
2 14469 101.6675 136.1924 0272218 319.4435 207.9277 13.05920204542381
0 THORAD AGENA D DEB
1 14469U 70025NV  13294.16295792  .00000356  00000-0  10457-2 0  9069
2 14469 101.6686 138.5077 0272187 314.8808 167.0988 13.05918179542660
